[{"OBJECT_NAME":"STARLINK-31798","OBJECT_ID":"2024-082E","EPOCH":"2026-03-05T16:08:57.643296","MEAN_MOTION":15.27569833,"ECCENTRICITY":0.00013236,"INCLINATION":43.0008,"RA_OF_ASC_NODE":162.8352,"ARG_OF_PERICENTER":272.4702,"MEAN_ANOMALY":87.5998,"EPHEMERIS_TYPE":0,"CLASSIFICATION_TYPE":"U","NORAD_CAT_ID":59635,"ELEMENT_SET_NO":999,"REV_AT_EPOCH":10419,"BSTAR":-4.4342083e-5,"MEAN_MOTION_DOT":-1.482e-5,"MEAN_MOTION_DDOT":0},{"OBJECT_NAME":"STARLINK-31802","OBJECT_ID":"2024-082F","EPOCH":"2026-03-05T12:49:32.329344","MEAN_MOTION":15.27583945,"ECCENTRICITY":8.08e-5,"INCLINATION":43.0019,"RA_OF_ASC_NODE":163.5163,"ARG_OF_PERICENTER":243.693,"MEAN_ANOMALY":116.3838,"EPHEMERIS_TYPE":0,"CLASSIFICATION_TYPE":"U","NORAD_CAT_ID":59636,"ELEMENT_SET_NO":999,"REV_AT_EPOCH":10417,"BSTAR":3.3196e-5,"MEAN_MOTION_DOT":6.52e-6,"MEAN_MOTION_DDOT":0},{"OBJECT_NAME":"STARLINK-31791","OBJECT_ID":"2024-082G","EPOCH":"2026-03-05T13:31:54.370272","MEAN_MOTION":15.27559711,"ECCENTRICITY":5.48e-5,"INCLINATION":43.0014,"RA_OF_ASC_NODE":162.88,"ARG_OF_PERICENTER":240.2834,"MEAN_ANOMALY":119.7963,"EPHEMERIS_TYPE":0,"CLASSIFICATION_TYPE":"U","NORAD_CAT_ID":59637,"ELEMENT_SET_NO":999,"REV_AT_EPOCH":10418,"BSTAR":2.6773e-5,"MEAN_MOTION_DOT":4.75e-6,"MEAN_MOTION_DDOT":0},{"OBJECT_NAME":"STARLINK-31727","OBJECT_ID":"2024-082H","EPOCH":"2026-03-05T13:06:11.818368","MEAN_MOTION":15.2757232,"ECCENTRICITY":0.0001252,"INCLINATION":43,"RA_OF_ASC_NODE":163.5977,"ARG_OF_PERICENTER":268.6445,"MEAN_ANOMALY":91.4263,"EPHEMERIS_TYPE":0,"CLASSIFICATION_TYPE":"U","NORAD_CAT_ID":59638,"ELEMENT_SET_NO":999,"REV_AT_EPOCH":10422,"BSTAR":-3.7745e-5,"MEAN_MOTION_DOT":-1.3e-5,"MEAN_MOTION_DDOT":0},{"OBJECT_NAME":"STARLINK-31807","OBJECT_ID":"2024-082J","EPOCH":"2026-03-05T12:55:06.051936","MEAN_MOTION":15.27565139,"ECCENTRICITY":0.0001683,"INCLINATION":43.0048,"RA_OF_ASC_NODE":163.5461,"ARG_OF_PERICENTER":260.9487,"MEAN_ANOMALY":99.1174,"EPHEMERIS_TYPE":0,"CLASSIFICATION_TYPE":"U","NORAD_CAT_ID":59639,"ELEMENT_SET_NO":999,"REV_AT_EPOCH":10417,"BSTAR":-5.0167e-5,"MEAN_MOTION_DOT":-1.642e-5,"MEAN_MOTION_DDOT":0},{"OBJECT_NAME":"STARLINK-31806","OBJECT_ID":"2024-082K","EPOCH":"2026-03-05T15:37:29.574336","MEAN_MOTION":15.27604474,"ECCENTRICITY":9.408e-5,"INCLINATION":43.0006,"RA_OF_ASC_NODE":162.6755,"ARG_OF_PERICENTER":226.4937,"MEAN_ANOMALY":133.5836,"EPHEMERIS_TYPE":0,"CLASSIFICATION_TYPE":"U","NORAD_CAT_ID":59640,"ELEMENT_SET_NO":999,"REV_AT_EPOCH":10419,"BSTAR":-0.00032155347,"MEAN_MOTION_DOT":-9.106e-5,"MEAN_MOTION_DDOT":0},{"OBJECT_NAME":"STARLINK-31804","OBJECT_ID":"2024-082L","EPOCH":"2026-03-05T15:00:29.680128","MEAN_MOTION":15.27577166,"ECCENTRICITY":6.36e-5,"INCLINATION":42.9976,"RA_OF_ASC_NODE":162.4769,"ARG_OF_PERICENTER":276.5905,"MEAN_ANOMALY":83.4874,"EPHEMERIS_TYPE":0,"CLASSIFICATION_TYPE":"U","NORAD_CAT_ID":59641,"ELEMENT_SET_NO":999,"REV_AT_EPOCH":10419,"BSTAR":-1.8904e-5,"MEAN_MOTION_DOT":-7.82e-6,"MEAN_MOTION_DDOT":0},{"OBJECT_NAME":"STARLINK-31660","OBJECT_ID":"2024-082M","EPOCH":"2026-03-05T11:05:46.447296","MEAN_MOTION":15.27589883,"ECCENTRICITY":0.0001796,"INCLINATION":43.0004,"RA_OF_ASC_NODE":123.3116,"ARG_OF_PERICENTER":301.1479,"MEAN_ANOMALY":58.9196,"EPHEMERIS_TYPE":0,"CLASSIFICATION_TYPE":"U","NORAD_CAT_ID":59642,"ELEMENT_SET_NO":999,"REV_AT_EPOCH":10482,"BSTAR":7.5539e-5,"MEAN_MOTION_DOT":1.818e-5,"MEAN_MOTION_DDOT":0},{"OBJECT_NAME":"STARLINK-31800","OBJECT_ID":"2024-082N","EPOCH":"2026-03-05T15:54:09.389952","MEAN_MOTION":15.27571777,"ECCENTRICITY":0.00016796,"INCLINATION":43.0052,"RA_OF_ASC_NODE":162.7424,"ARG_OF_PERICENTER":264.9922,"MEAN_ANOMALY":95.0738,"EPHEMERIS_TYPE":0,"CLASSIFICATION_TYPE":"U","NORAD_CAT_ID":59643,"ELEMENT_SET_NO":999,"REV_AT_EPOCH":10429,"BSTAR":-5.4082639e-5,"MEAN_MOTION_DOT":-1.75e-5,"MEAN_MOTION_DDOT":0},{"OBJECT_NAME":"STARLINK-31789","OBJECT_ID":"2024-082P","EPOCH":"2026-03-05T07:26:21.206688","MEAN_MOTION":15.27619217,"ECCENTRICITY":0.0002194,"INCLINATION":42.9999,"RA_OF_ASC_NODE":164.4107,"ARG_OF_PERICENTER":157.3916,"MEAN_ANOMALY":202.7033,"EPHEMERIS_TYPE":0,"CLASSIFICATION_TYPE":"U","NORAD_CAT_ID":59644,"ELEMENT_SET_NO":999,"REV_AT_EPOCH":10434,"BSTAR":0.0016107,"MEAN_MOTION_DOT":0.00044382,"MEAN_MOTION_DDOT":0},{"OBJECT_NAME":"STARLINK-31795","OBJECT_ID":"2024-082Q","EPOCH":"2026-03-05T11:05:21.946848","MEAN_MOTION":15.27580619,"ECCENTRICITY":4.07e-5,"INCLINATION":42.9977,"RA_OF_ASC_NODE":105.112,"ARG_OF_PERICENTER":57.5076,"MEAN_ANOMALY":302.5815,"EPHEMERIS_TYPE":0,"CLASSIFICATION_TYPE":"U","NORAD_CAT_ID":59645,"ELEMENT_SET_NO":999,"REV_AT_EPOCH":10483,"BSTAR":-1.5478e-5,"MEAN_MOTION_DOT":-6.88e-6,"MEAN_MOTION_DDOT":0},{"OBJECT_NAME":"STARLINK-31796","OBJECT_ID":"2024-082R","EPOCH":"2026-03-05T07:35:37.483584","MEAN_MOTION":15.27579446,"ECCENTRICITY":7.43e-5,"INCLINATION":43.0031,"RA_OF_ASC_NODE":164.4631,"ARG_OF_PERICENTER":204.8237,"MEAN_ANOMALY":155.2579,"EPHEMERIS_TYPE":0,"CLASSIFICATION_TYPE":"U","NORAD_CAT_ID":59646,"ELEMENT_SET_NO":999,"REV_AT_EPOCH":10430,"BSTAR":-0.00014626,"MEAN_MOTION_DOT":-4.284e-5,"MEAN_MOTION_DDOT":0},{"OBJECT_NAME":"STARLINK-31801","OBJECT_ID":"2024-082S","EPOCH":"2026-03-05T06:55:05.834208","MEAN_MOTION":15.27581846,"ECCENTRICITY":0.0001619,"INCLINATION":43.0023,"RA_OF_ASC_NODE":165.1028,"ARG_OF_PERICENTER":182.2389,"MEAN_ANOMALY":177.8455,"EPHEMERIS_TYPE":0,"CLASSIFICATION_TYPE":"U","NORAD_CAT_ID":59647,"ELEMENT_SET_NO":999,"REV_AT_EPOCH":10418,"BSTAR":2.3351e-5,"MEAN_MOTION_DOT":3.8e-6,"MEAN_MOTION_DDOT":0},{"OBJECT_NAME":"STARLINK-31787","OBJECT_ID":"2024-082V","EPOCH":"2026-03-05T06:06:58.912128","MEAN_MOTION":15.27591653,"ECCENTRICITY":8.8e-5,"INCLINATION":42.9969,"RA_OF_ASC_NODE":164.8543,"ARG_OF_PERICENTER":164.4508,"MEAN_ANOMALY":195.637,"EPHEMERIS_TYPE":0,"CLASSIFICATION_TYPE":"U","NORAD_CAT_ID":59650,"ELEMENT_SET_NO":999,"REV_AT_EPOCH":10433,"BSTAR":0.00010099,"MEAN_MOTION_DOT":2.519e-5,"MEAN_MOTION_DDOT":0},{"OBJECT_NAME":"STARLINK-31277","OBJECT_ID":"2024-082W","EPOCH":"2026-03-05T15:43:02.588448","MEAN_MOTION":15.27573458,"ECCENTRICITY":9.571e-5,"INCLINATION":42.9999,"RA_OF_ASC_NODE":162.699,"ARG_OF_PERICENTER":188.8183,"MEAN_ANOMALY":171.2652,"EPHEMERIS_TYPE":0,"CLASSIFICATION_TYPE":"U","NORAD_CAT_ID":59651,"ELEMENT_SET_NO":999,"REV_AT_EPOCH":10439,"BSTAR":-4.203263e-5,"MEAN_MOTION_DOT":-1.418e-5,"MEAN_MOTION_DDOT":0},{"OBJECT_NAME":"STARLINK-31799","OBJECT_ID":"2024-082X","EPOCH":"2026-03-05T05:37:39.058176","MEAN_MOTION":15.27575451,"ECCENTRICITY":0.0001218,"INCLINATION":43.0019,"RA_OF_ASC_NODE":154.2988,"ARG_OF_PERICENTER":273.6723,"MEAN_ANOMALY":86.3989,"EPHEMERIS_TYPE":0,"CLASSIFICATION_TYPE":"U","NORAD_CAT_ID":59652,"ELEMENT_SET_NO":999,"REV_AT_EPOCH":10430,"BSTAR":-3.1594e-5,"MEAN_MOTION_DOT":-1.131e-5,"MEAN_MOTION_DDOT":0}]
