STARLINK-31798          
1 59635U 24082E   26064.67288939 -.00001482  00000+0 -44342-4 0  9991
2 59635  43.0008 162.8352 0001324 272.4702  87.5998 15.27569833104196
STARLINK-31802          
1 59636U 24082F   26064.53440196  .00000652  00000+0  33196-4 0  9993
2 59636  43.0019 163.5163 0000808 243.6930 116.3838 15.27583945104178
STARLINK-31791          
1 59637U 24082G   26064.56382373  .00000475  00000+0  26773-4 0  9995
2 59637  43.0014 162.8800 0000548 240.2834 119.7963 15.27559711104182
STARLINK-31727          
1 59638U 24082H   26064.54597012 -.00001300  00000+0 -37745-4 0  9993
2 59638  43.0000 163.5977 0001252 268.6445  91.4263 15.27572320104221
STARLINK-31807          
1 59639U 24082J   26064.53826449 -.00001642  00000+0 -50167-4 0  9994
2 59639  43.0048 163.5461 0001683 260.9487  99.1174 15.27565139104171
STARLINK-31806          
1 59640U 24082K   26064.65103674 -.00009106  00000+0 -32155-3 0  9996
2 59640  43.0006 162.6755 0000941 226.4937 133.5836 15.27604474104192
STARLINK-31804          
1 59641U 24082L   26064.62534352 -.00000782  00000+0 -18904-4 0  9993
2 59641  42.9976 162.4769 0000636 276.5905  83.4874 15.27577166104194
STARLINK-31660          
1 59642U 24082M   26064.46234314  .00001818  00000+0  75539-4 0  9997
2 59642  43.0004 123.3116 0001796 301.1479  58.9196 15.27589883104823
STARLINK-31800          
1 59643U 24082N   26064.66260867 -.00001750  00000+0 -54083-4 0  9990
2 59643  43.0052 162.7424 0001680 264.9922  95.0738 15.27571777104295
STARLINK-31789          
1 59644U 24082P   26064.30996767  .00044382  00000+0  16107-2 0  9996
2 59644  42.9999 164.4107 0002194 157.3916 202.7033 15.27619217104343
STARLINK-31795          
1 59645U 24082Q   26064.46205957 -.00000688  00000+0 -15478-4 0  9993
2 59645  42.9977 105.1120 0000407  57.5076 302.5815 15.27580619104834
STARLINK-31796          
1 59646U 24082R   26064.31640606 -.00004284  00000+0 -14626-3 0  9991
2 59646  43.0031 164.4631 0000743 204.8237 155.2579 15.27579446104300
STARLINK-31801          
1 59647U 24082S   26064.28826197  .00000380  00000+0  23351-4 0  9996
2 59647  43.0023 165.1028 0001619 182.2389 177.8455 15.27581846104186
STARLINK-31787          
1 59650U 24082V   26064.25484852  .00002519  00000+0  10099-3 0  9995
2 59650  42.9969 164.8543 0000880 164.4508 195.6370 15.27591653104337
STARLINK-31277          
1 59651U 24082W   26064.65489107 -.00001418  00000+0 -42033-4 0  9991
2 59651  42.9999 162.6990 0000957 188.8183 171.2652 15.27573458104399
STARLINK-31799          
1 59652U 24082X   26064.23447984 -.00001131  00000+0 -31594-4 0  9995
2 59652  43.0019 154.2988 0001218 273.6723  86.3989 15.27575451104308
